ONEWEB-0042             
1 45441U 20020T   23059.52449281  .00000029  00000+0  47155-4 0  9992
2 45441  87.8802 260.3883 0001607  80.1177 280.0133 13.11419803144772
ONEWEB-0042             
1 45441U 20020T   23059.82967888  .00000247  00000+0  66039-3 0  9996
2 45441  87.8804 260.3268 0001894  81.2564 278.8778 13.11418759144826
ONEWEB-0042             
1 45441U 20020T   23060.82153287 -.00000118  00000+0 -36776-3 0  9992
2 45441  87.8800 260.1291 0001603  79.7869 280.3439 13.11419519144944
ONEWEB-0042             
1 45441U 20020T   23061.05042265 -.00000281  00000+0 -82853-3 0  9999
2 45441  87.8801 260.0834 0001575  80.0534 280.0772 13.11419470144986
ONEWEB-0042             
1 45441U 20020T   23061.81338811 -.00001810  00000+0 -51444-2 0  9998
2 45441  87.8802 259.9315 0001590  72.7536 287.3766 13.11424170145072
ONEWEB-0042             
1 45441U 20020T   23062.27116923 -.00000597  00000+0 -17192-2 0  9990
2 45441  87.8798 259.8399 0001557  80.6627 279.4677 13.11417478145143
ONEWEB-0042             
1 45441U 20020T   23062.50005970 -.00000611  00000+0 -17609-2 0  9995
2 45441  87.8798 259.7939 0001556  80.7078 279.4225 13.11416777145164
ONEWEB-0042             
1 45441U 20020T   23062.80524576 -.00000618  00000+0 -17792-2 0  9996
2 45441  87.8799 259.7332 0001551  81.2177 278.9126 13.11417457145208
